{"type":"FeatureCollection","features":[{"type":"Feature","properties":{"kind":"poi","name":"Kangla Dragon","tourism":"artwork","osm":"node/6199775828"},"geometry":{"type":"Point","coordinates":[93.942647,24.807513]}},{"type":"Feature","properties":{"kind":"poi","name":"Kangla Dragon","tourism":"artwork","osm":"node/6199775829"},"geometry":{"type":"Point","coordinates":[93.942645,24.807426]}},{"type":"Feature","properties":{"kind":"poi","name":"Bir Tikendrajit Temple","amenity":"place_of_worship","osm":"node/6516579167"},"geometry":{"type":"Point","coordinates":[93.942373,24.812013]}},{"type":"Feature","properties":{"kind":"poi","name":"Ibudhou Pakhangba Temple","amenity":"place_of_worship","osm":"node/6516579168"},"geometry":{"type":"Point","coordinates":[93.941954,24.808148]}},{"type":"Feature","properties":{"kind":"poi","name":"Kangla Museum","tourism":"museum","osm":"node/6853130687"},"geometry":{"type":"Point","coordinates":[93.941519,24.803462]}},{"type":"Feature","properties":{"kind":"poi","name":"Archeological Museum","tourism":"museum","osm":"node/6853138385"},"geometry":{"type":"Point","coordinates":[93.942311,24.811565]}},{"type":"Feature","properties":{"kind":"fort","name":"Kangla","osm":"way/120515792"},"geometry":{"type":"Polygon","coordinates":[[[93.939478,24.814967],[93.939519,24.814975],[93.93957,24.81497],[93.940642,24.814823],[93.940875,24.814792],[93.943235,24.814531],[93.943846,24.814463],[93.944047,24.813147],[93.9441,24.812016],[93.944133,24.811005],[93.944218,24.810304],[93.944347,24.809564],[93.944648,24.809447],[93.945087,24.809172],[93.94556,24.808938],[93.945935,24.808629],[93.946192,24.808122],[93.946278,24.807577],[93.946021,24.807265],[93.945678,24.806447],[93.945291,24.805941],[93.944862,24.805235],[93.944304,24.80451],[93.943527,24.804558],[93.942672,24.804332],[93.942521,24.803711],[93.942563,24.802961],[93.94165,24.802941],[93.940844,24.802936],[93.939809,24.802928],[93.938899,24.802924],[93.938868,24.802934],[93.938854,24.802957],[93.938848,24.803031],[93.938838,24.804106],[93.938828,24.807257],[93.938827,24.807739],[93.938847,24.808268],[93.939377,24.814435],[93.939405,24.814736],[93.939417,24.814855],[93.93942,24.814894],[93.939436,24.81493],[93.939478,24.814967]]]}},{"type":"Feature","properties":{"kind":"moat","osm":"way/336589345"},"geometry":{"type":"Polygon","coordinates":[[[93.940685,24.815054],[93.93939,24.815213],[93.939294,24.815204],[93.939194,24.815162],[93.939133,24.81509],[93.939109,24.815],[93.939091,24.814755],[93.939059,24.814442],[93.939377,24.814435],[93.939405,24.814736],[93.939417,24.814855],[93.93942,24.814894],[93.939436,24.81493],[93.939478,24.814967],[93.939519,24.814975],[93.939568,24.81497],[93.93957,24.81497],[93.940642,24.814823],[93.940875,24.814792],[93.940913,24.81503],[93.940685,24.815054]]]}},{"type":"Feature","properties":{"kind":"moat","osm":"way/336589348"},"geometry":{"type":"Polygon","coordinates":[[[93.938537,24.807273],[93.938828,24.807257],[93.938838,24.804106],[93.938848,24.803031],[93.938854,24.802957],[93.938868,24.802934],[93.938899,24.802924],[93.939083,24.802923],[93.939809,24.802928],[93.940844,24.802936],[93.94183,24.802944],[93.941828,24.802708],[93.938904,24.802658],[93.938701,24.802658],[93.93863,24.802701],[93.938573,24.802766],[93.938507,24.802899],[93.938488,24.802989],[93.938537,24.807273]]]}},{"type":"Feature","properties":{"kind":"moat","osm":"way/339014297"},"geometry":{"type":"Polygon","coordinates":[[[93.941386,24.808418],[93.942144,24.808333],[93.942258,24.809273],[93.941513,24.809368],[93.941386,24.808418]]]}},{"type":"Feature","properties":{"kind":"moat","osm":"way/339014298"},"geometry":{"type":"Polygon","coordinates":[[[93.940456,24.807618],[93.940537,24.810647],[93.943045,24.810596],[93.942866,24.810243],[93.940951,24.810243],[93.940846,24.807613],[93.940456,24.807618]]]}},{"type":"Feature","properties":{"kind":"moat","osm":"way/339014299"},"geometry":{"type":"Polygon","coordinates":[[[93.941908,24.804212],[93.94191,24.804533],[93.940767,24.80456],[93.940821,24.806687],[93.940691,24.806704],[93.940716,24.8074],[93.940444,24.807405],[93.940409,24.804283],[93.941908,24.804212]]]}},{"type":"Feature","properties":{"kind":"moat","osm":"way/517997615"},"geometry":{"type":"Polygon","coordinates":[[[93.942486,24.80815],[93.942478,24.80804],[93.943707,24.807972],[93.943714,24.808082],[93.942486,24.80815]]]}},{"type":"Feature","properties":{"kind":"building","osm":"way/517997617"},"geometry":{"type":"Polygon","coordinates":[[[93.944214,24.806467],[93.94435,24.806465],[93.944346,24.806307],[93.94421,24.806301],[93.944214,24.806467]]]}},{"type":"Feature","properties":{"kind":"building","osm":"way/517997619"},"geometry":{"type":"Polygon","coordinates":[[[93.945154,24.808546],[93.945251,24.808544],[93.945246,24.808337],[93.945149,24.808339],[93.945154,24.808546]]]}},{"type":"Feature","properties":{"kind":"building","historic":"city_gate","osm":"way/688223556"},"geometry":{"type":"Polygon","coordinates":[[[93.938966,24.80742],[93.939103,24.807421],[93.939102,24.80756],[93.938966,24.807559],[93.938965,24.807559],[93.938965,24.807489],[93.938966,24.80742]]]}},{"type":"Feature","properties":{"kind":"building","osm":"way/690053688"},"geometry":{"type":"Polygon","coordinates":[[[93.945351,24.808691],[93.945353,24.808752],[93.945467,24.80875],[93.945465,24.808689],[93.945351,24.808691]]]}},{"type":"Feature","properties":{"kind":"building","osm":"way/690053689"},"geometry":{"type":"Polygon","coordinates":[[[93.940074,24.808166],[93.940074,24.808316],[93.940169,24.808316],[93.940169,24.808166],[93.940074,24.808166]]]}},{"type":"Feature","properties":{"kind":"building","osm":"way/690053690"},"geometry":{"type":"Polygon","coordinates":[[[93.939631,24.808288],[93.939769,24.808288],[93.939769,24.808229],[93.939631,24.808229],[93.939631,24.808288]]]}},{"type":"Feature","properties":{"kind":"building","osm":"way/690053691"},"geometry":{"type":"Polygon","coordinates":[[[93.93947,24.808857],[93.939464,24.808418],[93.939344,24.80842],[93.939351,24.808858],[93.93947,24.808857]]]}},{"type":"Feature","properties":{"kind":"building","osm":"way/690053692"},"geometry":{"type":"Polygon","coordinates":[[[93.940071,24.808418],[93.939952,24.808419],[93.939956,24.808846],[93.940075,24.808845],[93.940071,24.808418]]]}},{"type":"Feature","properties":{"kind":"building","osm":"way/690053695"},"geometry":{"type":"Polygon","coordinates":[[[93.94295,24.809067],[93.942968,24.809117],[93.943022,24.809101],[93.943004,24.809051],[93.94295,24.809067]]]}},{"type":"Feature","properties":{"kind":"building","osm":"way/690053696"},"geometry":{"type":"Polygon","coordinates":[[[93.942914,24.808987],[93.94294,24.809037],[93.942991,24.809016],[93.942965,24.808966],[93.942914,24.808987]]]}},{"type":"Feature","properties":{"kind":"building","osm":"way/690053697"},"geometry":{"type":"Polygon","coordinates":[[[93.942812,24.809156],[93.942904,24.809114],[93.942867,24.809049],[93.942775,24.809091],[93.942812,24.809156]]]}},{"type":"Feature","properties":{"kind":"building","osm":"way/690053698"},"geometry":{"type":"Polygon","coordinates":[[[93.942904,24.807432],[93.942903,24.80738],[93.942824,24.807381],[93.942825,24.807433],[93.942773,24.807434],[93.942774,24.807509],[93.942826,24.807508],[93.942827,24.807552],[93.942906,24.807551],[93.942905,24.807507],[93.94295,24.807507],[93.942949,24.807431],[93.942904,24.807432]]]}},{"type":"Feature","properties":{"kind":"building","osm":"way/690053701"},"geometry":{"type":"Polygon","coordinates":[[[93.94153,24.803976],[93.941519,24.803889],[93.941371,24.803905],[93.941383,24.803992],[93.94153,24.803976]]]}},{"type":"Feature","properties":{"kind":"building","osm":"way/690053702"},"geometry":{"type":"Polygon","coordinates":[[[93.940984,24.803402],[93.941006,24.803566],[93.9411,24.803556],[93.941079,24.803392],[93.940984,24.803402]]]}},{"type":"Feature","properties":{"kind":"building","osm":"way/690053703"},"geometry":{"type":"Polygon","coordinates":[[[93.941576,24.803208],[93.94145,24.803222],[93.941474,24.803414],[93.941445,24.803417],[93.941458,24.803524],[93.941488,24.803521],[93.941522,24.803782],[93.941638,24.80377],[93.941605,24.803509],[93.941566,24.803513],[93.941557,24.803442],[93.941605,24.803437],[93.941576,24.803208]]]}},{"type":"Feature","properties":{"kind":"building","osm":"way/690053705"},"geometry":{"type":"Polygon","coordinates":[[[93.939465,24.80781],[93.939371,24.80781],[93.939371,24.808019],[93.939465,24.808019],[93.939465,24.80781]]]}},{"type":"Feature","properties":{"kind":"building","osm":"way/690053706"},"geometry":{"type":"Polygon","coordinates":[[[93.939524,24.807764],[93.939775,24.807764],[93.939775,24.807697],[93.939524,24.807697],[93.939524,24.807764]]]}},{"type":"Feature","properties":{"kind":"building","osm":"way/690053707"},"geometry":{"type":"Polygon","coordinates":[[[93.940896,24.806939],[93.940793,24.806943],[93.940815,24.807424],[93.940917,24.80742],[93.940896,24.806939]]]}},{"type":"Feature","properties":{"kind":"building","osm":"way/690053708"},"geometry":{"type":"Polygon","coordinates":[[[93.941265,24.807809],[93.941249,24.807634],[93.941125,24.807644],[93.941141,24.807818],[93.941265,24.807809]]]}},{"type":"Feature","properties":{"kind":"moat","osm":"way/690053709"},"geometry":{"type":"Polygon","coordinates":[[[93.945115,24.808056],[93.945363,24.808036],[93.945336,24.807754],[93.945087,24.807773],[93.945115,24.808056]]]}},{"type":"Feature","properties":{"kind":"building","osm":"way/690053710"},"geometry":{"type":"Polygon","coordinates":[[[93.94484,24.8071],[93.944559,24.807123],[93.944568,24.807207],[93.944742,24.807193],[93.944753,24.807306],[93.944579,24.80732],[93.944586,24.807393],[93.944867,24.80737],[93.94484,24.8071]]]}},{"type":"Feature","properties":{"kind":"building","osm":"way/690053711"},"geometry":{"type":"Polygon","coordinates":[[[93.945118,24.807484],[93.944996,24.807485],[93.944999,24.807634],[93.94512,24.807632],[93.945118,24.807484]]]}},{"type":"Feature","properties":{"kind":"building","historic":"monument","osm":"way/692205724"},"geometry":{"type":"Polygon","coordinates":[[[93.941825,24.808342],[93.942127,24.808311],[93.942123,24.80808],[93.942029,24.80808],[93.942029,24.807929],[93.941863,24.807944],[93.94188,24.808072],[93.941884,24.808107],[93.941803,24.808114],[93.941825,24.808342]]]}},{"type":"Feature","properties":{"kind":"path","osm":"way/44884390","highway":"trunk","name":""},"geometry":{"type":"LineString","coordinates":[[93.9354363,24.7999772],[93.9355678,24.8001014],[93.9357367,24.8002292],[93.9364569,24.8008209],[93.9369048,24.8011995],[93.9370684,24.8013358],[93.937224,24.8014685],[93.937401,24.8016195],[93.9379509,24.8021016],[93.9383104,24.8024375]]}},{"type":"Feature","properties":{"kind":"path","osm":"way/44884411","highway":"trunk","name":""},"geometry":{"type":"LineString","coordinates":[[93.9385134,24.8026144],[93.9385472,24.8025853],[93.9385689,24.802548],[93.9385765,24.8025063],[93.9385681,24.8024624],[93.9385439,24.8024235],[93.9385067,24.8023944],[93.9384609,24.8023783],[93.9384118,24.8023771],[93.9383719,24.8023879],[93.9383372,24.8024086],[93.9383104,24.8024375],[93.9382896,24.8024929],[93.9382923,24.8025349],[93.9383096,24.802574],[93.9383397,24.802606],[93.9383795,24.8026276],[93.9384249,24.8026367],[93.9384712,24.8026321],[93.9385134,24.8026144]]}},{"type":"Feature","properties":{"kind":"path","osm":"way/44886083","highway":"trunk","name":""},"geometry":{"type":"LineString","coordinates":[[93.9383397,24.802606],[93.9383348,24.8029318],[93.9383333,24.8057002],[93.9383233,24.807143],[93.9383158,24.8073988]]}},{"type":"Feature","properties":{"kind":"path","osm":"way/69260685","highway":"trunk","name":""},"geometry":{"type":"LineString","coordinates":[[93.9385689,24.802548],[93.9388776,24.8025428],[93.9394408,24.8025216],[93.9401972,24.8025155],[93.9409737,24.8025253],[93.9411159,24.8025301],[93.9411207,24.8024522],[93.9411199,24.8022136],[93.9411212,24.8020894],[93.9411134,24.801617],[93.9411065,24.8012007],[93.9411011,24.8010096],[93.941096,24.800755],[93.9410917,24.8004447],[93.9410904,24.8000807],[93.9410971,24.7997166],[93.9410797,24.7987451],[93.9410757,24.7985479],[93.9410757,24.7982898],[93.9410636,24.7979964],[93.9410502,24.7976628],[93.9410368,24.797535],[93.9410113,24.7973767],[93.9409845,24.7972124],[93.9409657,24.7970407],[93.9409603,24.7969914],[93.9409482,24.7969384],[93.9409275,24.7968861],[93.9408892,24.7968301],[93.9408329,24.7967656],[93.9407404,24.7966633],[93.9406545,24.796561],[93.9406036,24.7964831],[93.9405567,24.7963823],[93.9405419,24.7963005],[93.9405338,24.7962104],[93.9405406,24.796057],[93.9405566,24.7959243],[93.9406049,24.7957587],[93.9406559,24.7956102],[93.9407176,24.7954653],[93.9408222,24.7952121],[93.940912,24.7949832],[93.9409938,24.7947628],[93.9411293,24.7943793],[93.9413828,24.7936695],[93.9415839,24.7931436],[93.9419098,24.7922865],[93.941938,24.7921902],[93.9419581,24.7920637],[93.9419742,24.7918957],[93.9419755,24.7917812],[93.9419702,24.7916412],[93.9419554,24.7915097],[93.9419246,24.7913636],[93.9418535,24.7911177],[93.9417757,24.7908815],[93.9416952,24.7906733],[93.9415388,24.7902935],[93.9414833,24.7901607],[93.9414351,24.7900487],[93.941364,24.7899026],[93.9413063,24.7897991],[93.9409912,24.7892549],[93.9408262,24.7889346],[93.9406666,24.7886193],[93.9405271,24.788349],[93.9404534,24.7882005],[93.940389,24.7880787],[93.9400317,24.7873748],[93.9398673,24.787028],[93.9397667,24.7868307],[93.939646,24.7865897],[93.9395334,24.7863705],[93.9394341,24.7861586],[93.9393188,24.7859236],[93.9392263,24.7857313],[93.9391002,24.7854476],[93.9390533,24.7853404],[93.9389259,24.7850774],[93.9387998,24.7848254],[93.9385825,24.7844041],[93.9385578,24.7843543],[93.9380367,24.7833059],[93.9376384,24.7825924],[93.9375673,24.7824682],[93.9374973,24.7823604],[93.9374614,24.782305],[93.9373997,24.7821893],[93.9373849,24.7821041],[93.9373957,24.7820274],[93.9374211,24.7819604],[93.9374734,24.7818959],[93.9375807,24.7818131],[93.9377175,24.7817352],[93.9378463,24.7816706],[93.9379589,24.7816304],[93.9380823,24.7816037],[93.9382347,24.7815898],[93.9382701,24.7815866],[93.938395,24.7815799],[93.9385571,24.7815805],[93.9388145,24.7815769],[93.9391404,24.7815671],[93.9392489,24.78156],[93.9393242,24.781555],[93.9394294,24.7815318],[93.9395126,24.7815038],[93.9395803,24.7814685],[93.9396447,24.7814247],[93.9397252,24.781365],[93.9397788,24.7813108],[93.9398217,24.7812518],[93.9398405,24.7811964],[93.9398392,24.7811264]]}},{"type":"Feature","properties":{"kind":"path","osm":"way/96566390","highway":"tertiary","name":""},"geometry":{"type":"LineString","coordinates":[[93.9437323,24.8026615],[93.943809,24.802659],[93.9448106,24.8026535],[93.9458365,24.8026842],[93.9473513,24.80272],[93.9474908,24.8026738]]}},{"type":"Feature","properties":{"kind":"path","osm":"way/96566395","highway":"primary","name":""},"geometry":{"type":"LineString","coordinates":[[93.9364554,24.8075549],[93.9372709,24.8075481],[93.9376517,24.8075396],[93.9382488,24.8075261]]}},{"type":"Feature","properties":{"kind":"river","osm":"way/151116236","highway":"","name":"Imphal River"},"geometry":{"type":"LineString","coordinates":[[93.9673567,24.8384963],[93.9676416,24.8379489],[93.9672732,24.8367911],[93.967191,24.8361379],[93.9669657,24.8351351],[93.9668262,24.8344778],[93.96644,24.834249],[93.9659054,24.8343266],[93.9647126,24.8338011],[93.9642727,24.8332559],[93.9634578,24.8319998],[93.962788,24.8303421],[93.9628136,24.8291031],[93.9626051,24.8282018],[93.9612964,24.8268886],[93.9607805,24.8259823],[93.9606357,24.8250183],[93.9603632,24.8240363],[93.959415,24.8217459],[93.9589591,24.8213819],[93.958589,24.8211969],[93.9581169,24.8212407],[93.9575805,24.8212845],[93.9573122,24.8212005],[93.9571375,24.821059],[93.9570355,24.8208618],[93.9570174,24.8206549],[93.9569965,24.82041],[93.9566424,24.819634],[93.956249,24.8189],[93.9557774,24.8183225],[93.9537442,24.8160951],[93.9530536,24.815415],[93.952605,24.8150587],[93.9521761,24.814913],[93.9515737,24.8148032],[93.950927,24.8148406],[93.9500439,24.8148323],[93.9494918,24.8146235],[93.9489656,24.8142717],[93.9485509,24.813351],[93.9481895,24.8128384],[93.9478944,24.8127495],[93.9476048,24.812766],[93.9471463,24.8130299],[93.9465683,24.8134897],[93.9453989,24.8142134],[93.9449347,24.8142956],[93.9446281,24.814141],[93.9443334,24.8139405],[93.9442634,24.8135124],[93.9443545,24.8128236],[93.9444067,24.8118049],[93.9445409,24.810768],[93.9446466,24.8102292],[93.9447889,24.8098085],[93.9451331,24.8095816],[93.9459836,24.8092438],[93.9462669,24.8088967],[93.9464088,24.8085442],[93.9465854,24.8079844],[93.9466746,24.8076033],[93.9464721,24.8066543],[93.9461513,24.8060829],[93.9459613,24.805856],[93.9456433,24.8057006],[93.9454662,24.8054786],[93.9453457,24.8053114],[93.9451043,24.804995],[93.9449596,24.8047744],[93.9446915,24.8043875],[93.9445491,24.8041989],[93.9443308,24.8040176],[93.9442805,24.8039805],[93.9440447,24.8038746],[93.9436478,24.8037442],[93.9434073,24.8036499],[93.9432333,24.8035651],[93.94312,24.8034516],[93.9431105,24.8033351],[93.9430949,24.8031781],[93.943207,24.8029158],[93.9434012,24.8026514],[93.943798,24.8018801],[93.9438752,24.8017695],[93.9440001,24.8015493],[93.9442324,24.8010204],[93.9444129,24.8004767],[93.9443889,24.8001002],[93.9442996,24.7996905],[93.9439168,24.7989589],[93.9437166,24.7983092],[93.9436582,24.7980878],[93.9435156,24.7978559],[93.943095,24.7974919],[93.9425602,24.7971613],[93.9421149,24.7969819],[93.9416117,24.7965251],[93.9413706,24.79623],[93.9412133,24.7958874],[93.9411504,24.79564],[93.9411852,24.7954017],[93.9415139,24.7951235],[93.9421398,24.794892],[93.942558,24.7947322],[93.9430358,24.7946707],[93.9433701,24.7946014],[93.9434883,24.7945169],[93.943677,24.7942124],[93.9436277,24.7938223],[93.9434883,24.7934795],[93.9431423,24.7931654],[93.9427964,24.7928038],[93.9426824,24.7926229],[93.942723,24.792442],[93.942863,24.7922432],[93.9432853,24.7920651],[93.9435173,24.7919261],[93.9436913,24.791621],[93.943759,24.791316],[93.9434891,24.7908257],[93.9431766,24.7904331],[93.9429727,24.7900333],[93.942848,24.7898302],[93.9428345,24.7896226],[93.9425202,24.7890554],[93.9422154,24.7882343],[93.9421385,24.7880331],[93.942119,24.7878078],[93.9419824,24.7875346],[93.941678,24.78683],[93.9404023,24.7846584],[93.940165,24.7841126],[93.9399243,24.7834409],[93.9398869,24.7828996],[93.9400036,24.7824143],[93.9406113,24.7818775],[93.9408973,24.7816663],[93.9412855,24.7813119],[93.9415059,24.7809369],[93.9418085,24.7802253],[93.9421564,24.7798239],[93.9425879,24.7791277],[93.943156,24.7781456],[93.9435943,24.7770946],[93.944009,24.7758364],[93.944148,24.7748466],[93.9450799,24.7718932],[93.9458773,24.7692628],[93.9457975,24.7674529],[93.9453723,24.7649672],[93.9450799,24.763133],[93.9447344,24.7615643],[93.9446281,24.7584269],[93.9448939,24.7569788],[93.9447876,24.7555307],[93.94407,24.7537929]]}},{"type":"Feature","properties":{"kind":"path","osm":"way/207169442","highway":"unclassified","name":""},"geometry":{"type":"LineString","coordinates":[[93.9386187,24.8107047],[93.9370857,24.8107036]]}},{"type":"Feature","properties":{"kind":"path","osm":"way/207169446","highway":"residential","name":""},"geometry":{"type":"LineString","coordinates":[[93.9384605,24.8089931],[93.9364473,24.8092282],[93.9361791,24.8092331],[93.9359967,24.8091795],[93.9352328,24.8092793],[93.9350633,24.8092379],[93.9348638,24.8092579]]}},{"type":"Feature","properties":{"kind":"path","osm":"way/207169451","highway":"residential","name":""},"geometry":{"type":"LineString","coordinates":[[93.9386724,24.811278],[93.9378566,24.811327],[93.9374215,24.8113731],[93.9372499,24.811417],[93.9371211,24.8114681],[93.9366244,24.8116677]]}},{"type":"Feature","properties":{"kind":"path","osm":"way/207169452","highway":"residential","name":""},"geometry":{"type":"LineString","coordinates":[[93.9387166,24.8117333],[93.9378522,24.8118165]]}},{"type":"Feature","properties":{"kind":"path","osm":"way/207169459","highway":"residential","name":""},"geometry":{"type":"LineString","coordinates":[[93.9366777,24.8134222],[93.9370053,24.8131735],[93.9373003,24.8130165],[93.9376543,24.8128217],[93.9380619,24.81275],[93.9383464,24.8127],[93.9387891,24.8126536]]}},{"type":"Feature","properties":{"kind":"path","osm":"way/300718376","highway":"tertiary","name":"Central Jail Road"},"geometry":{"type":"LineString","coordinates":[[93.9384118,24.8023771],[93.9384216,24.800077],[93.9383986,24.7989131],[93.9383868,24.7983971],[93.9383779,24.7979371],[93.9383598,24.7972185],[93.9383645,24.7968678],[93.9383559,24.7965758],[93.9383368,24.7955028],[93.9383511,24.7952385]]}},{"type":"Feature","properties":{"kind":"path","osm":"way/336081488","highway":"residential","name":""},"geometry":{"type":"LineString","coordinates":[[93.9472543,24.8124381],[93.947217,24.8122814],[93.9471724,24.8121086],[93.9471475,24.8119536],[93.9471022,24.8113566],[93.9470606,24.8110189],[93.9470329,24.8106413],[93.9469597,24.8101129],[93.9469437,24.8088536],[93.9469526,24.808236],[93.9469814,24.8074726],[93.947071,24.8074665],[93.9472626,24.8074533],[93.9474717,24.8074398],[93.9475679,24.8074382],[93.9482209,24.8074294],[93.9483801,24.8074308],[93.9490314,24.8074369],[93.9493808,24.8074349],[93.9497418,24.8074324],[93.94982,24.8074306]]}},{"type":"Feature","properties":{"kind":"path","osm":"way/336081489","highway":"residential","name":""},"geometry":{"type":"LineString","coordinates":[[93.9448542,24.8115457],[93.9448052,24.8119227],[93.9447762,24.812147],[93.944774,24.8128228],[93.9448104,24.813189],[93.9448821,24.8133791],[93.9449562,24.8134766],[93.9451345,24.8135286],[93.9453471,24.8135561],[93.9456209,24.8135226],[93.9458492,24.8134467],[93.9460949,24.8133061],[93.9464026,24.8130574],[93.9467472,24.8128249],[93.9470322,24.8126295],[93.9472543,24.8124381]]}},{"type":"Feature","properties":{"kind":"path","osm":"way/336081490","highway":"residential","name":""},"geometry":{"type":"LineString","coordinates":[[93.9448542,24.8115457],[93.9459525,24.8115038],[93.9471022,24.8113566]]}},{"type":"Feature","properties":{"kind":"path","osm":"way/336081491","highway":"residential","name":""},"geometry":{"type":"LineString","coordinates":[[93.9448542,24.8115457],[93.9448899,24.8111944],[93.9449424,24.8110262],[93.9453259,24.8102523],[93.9453849,24.8102032],[93.9454565,24.810182],[93.945711,24.8101597],[93.9459148,24.8101374],[93.9469597,24.8101129]]}},{"type":"Feature","properties":{"kind":"path","osm":"way/336081494","highway":"residential","name":""},"geometry":{"type":"LineString","coordinates":[[93.9469814,24.8074726],[93.9467406,24.8064551],[93.9465716,24.8060365],[93.9461216,24.8055455],[93.9457789,24.8052053],[93.9455109,24.8049029],[93.9455082,24.8048849],[93.9455091,24.8048626],[93.9455253,24.8048348],[93.9470821,24.8047343],[93.9474017,24.8046887],[93.947465,24.8046721],[93.9482421,24.8044793],[93.9483463,24.80446],[93.9487846,24.8044211]]}},{"type":"Feature","properties":{"kind":"path","osm":"way/336332050","highway":"residential","name":""},"geometry":{"type":"LineString","coordinates":[[93.9464026,24.8130574],[93.9463407,24.8128031],[93.9463324,24.8127829],[93.9463187,24.812764],[93.9462778,24.8127321],[93.9462667,24.8127224],[93.9462577,24.8127108],[93.9462155,24.812507],[93.9461914,24.8123747],[93.9461854,24.8121889],[93.9461777,24.811995],[93.9461732,24.8119712],[93.9461558,24.8119567],[93.9461359,24.8119492]]}},{"type":"Feature","properties":{"kind":"path","osm":"way/336332052","highway":"residential","name":""},"geometry":{"type":"LineString","coordinates":[[93.9461854,24.8121889],[93.9456293,24.8121831]]}},{"type":"Feature","properties":{"kind":"path","osm":"way/336594077","highway":"residential","name":""},"geometry":{"type":"LineString","coordinates":[[93.942501,24.8025257],[93.9424208,24.8011849],[93.9423718,24.8004897],[93.9423202,24.7999419],[93.9422706,24.7995292],[93.9422652,24.7994013],[93.9422625,24.7992845],[93.9422639,24.7991079],[93.9422719,24.7989606],[93.9422894,24.7988133],[93.9422947,24.7986855],[93.9422826,24.7985832],[93.9422491,24.7984383],[93.9410797,24.7987451]]}},{"type":"Feature","properties":{"kind":"path","osm":"way/336719719","highway":"trunk","name":""},"geometry":{"type":"LineString","coordinates":[[93.9383595,24.8073842],[93.9383158,24.8073988],[93.9382836,24.8074221],[93.9382605,24.807453],[93.9382486,24.8074888],[93.9382488,24.8075261],[93.9382601,24.8075595],[93.9382812,24.8075887],[93.9383104,24.8076115],[93.9383454,24.807626],[93.9383887,24.807631],[93.9384316,24.8076234],[93.9384696,24.807604],[93.9384985,24.8075753],[93.9385163,24.80754],[93.9385212,24.8075014],[93.9385113,24.80746],[93.9384867,24.807424],[93.9384502,24.8073976],[93.9384061,24.8073838],[93.9383595,24.8073842]]}},{"type":"Feature","properties":{"kind":"path","osm":"way/336719720","highway":"trunk","name":""},"geometry":{"type":"LineString","coordinates":[[93.9383454,24.807626],[93.9383867,24.8078573],[93.9384095,24.8080606],[93.9384605,24.8089931],[93.9385477,24.8099268],[93.9386187,24.8107047],[93.9386724,24.811278],[93.9387166,24.8117333],[93.9387408,24.8120279],[93.9387891,24.8126536],[93.9388199,24.8132087],[93.9388333,24.8133961],[93.9388964,24.8143152],[93.9389312,24.8147424],[93.9389594,24.8149616],[93.9389835,24.815121],[93.9390036,24.8151673],[93.9390254,24.8152145],[93.9390533,24.8152427],[93.9391418,24.8153024],[93.9392598,24.8153377],[93.9393845,24.8153511],[93.9396038,24.8153519],[93.9399303,24.8153194],[93.9408691,24.8152172],[93.9422241,24.815065],[93.9437491,24.8148938],[93.9440362,24.8148655],[93.9441613,24.8148531]]}},{"type":"Feature","properties":{"kind":"path","osm":"way/366223368","highway":"residential","name":""},"geometry":{"type":"LineString","coordinates":[[93.9470329,24.8106413],[93.9465901,24.8106312]]}},{"type":"Feature","properties":{"kind":"path","osm":"way/366223369","highway":"residential","name":""},"geometry":{"type":"LineString","coordinates":[[93.9470606,24.8110189],[93.9466628,24.8110481]]}},{"type":"Feature","properties":{"kind":"path","osm":"way/424883199","highway":"unclassified","name":""},"geometry":{"type":"LineString","coordinates":[[93.9418307,24.8025764],[93.9419554,24.804127],[93.9419773,24.8044804],[93.942168,24.8066886],[93.9422802,24.8074711],[93.9424748,24.8087441],[93.9425702,24.8090224],[93.9430335,24.8103582],[93.9430839,24.8104695],[93.9431342,24.8105562],[93.9434774,24.8108601],[93.9435739,24.8109622],[93.9436426,24.811109],[93.9436857,24.8114268],[93.9437342,24.8121145],[93.9438458,24.8131618],[93.944029,24.8147803]]}},{"type":"Feature","properties":{"kind":"path","osm":"way/424883200","highway":"unclassified","name":""},"geometry":{"type":"LineString","coordinates":[[93.9437342,24.8121145],[93.9405034,24.8123668]]}},{"type":"Feature","properties":{"kind":"path","osm":"way/424883201","highway":"service","name":""},"geometry":{"type":"LineString","coordinates":[[93.9407269,24.8145608],[93.9405034,24.8123668],[93.9404134,24.8108168],[93.9403456,24.8074577],[93.9402713,24.8056026],[93.9402571,24.8042569],[93.9419554,24.804127]]}},{"type":"Feature","properties":{"kind":"path","osm":"way/424883202","highway":"service","name":""},"geometry":{"type":"LineString","coordinates":[[93.9456877,24.8066921],[93.9439637,24.8067289],[93.9439436,24.8067337],[93.943926,24.8067462],[93.9439154,24.8067614],[93.9438118,24.8071657],[93.9438055,24.8071784],[93.9437946,24.8071906],[93.9437778,24.8071971],[93.9426378,24.8072972],[93.9425418,24.8073235],[93.9424473,24.8073595],[93.9422802,24.8074711]]}},{"type":"Feature","properties":{"kind":"path","osm":"way/630026174","highway":"service","name":""},"geometry":{"type":"LineString","coordinates":[[93.9422802,24.8074711],[93.9403456,24.8074577],[93.9388588,24.8075019],[93.9385212,24.8075014]]}},{"type":"Feature","properties":{"kind":"path","osm":"way/662029292","highway":"residential","name":""},"geometry":{"type":"LineString","coordinates":[[93.9383333,24.8057002],[93.9373246,24.8057562],[93.9372629,24.8057416],[93.9372307,24.8057002],[93.9371797,24.8053593],[93.9371127,24.8053471],[93.9354899,24.8053228]]}},{"type":"Feature","properties":{"kind":"path","osm":"way/665435612","highway":"tertiary","name":"Sanjenthong"},"geometry":{"type":"LineString","coordinates":[[93.9430538,24.8026275],[93.9437323,24.8026615]]}},{"type":"Feature","properties":{"kind":"path","osm":"way/665435613","highway":"tertiary","name":""},"geometry":{"type":"LineString","coordinates":[[93.9411159,24.8025301],[93.9418307,24.8025764],[93.9424744,24.8026153],[93.9430538,24.8026275]]}},{"type":"Feature","properties":{"kind":"path","osm":"way/665435635","highway":"residential","name":""},"geometry":{"type":"LineString","coordinates":[[93.9465716,24.8060365],[93.946582,24.805781],[93.946571,24.8056862],[93.946554,24.8056106],[93.9464376,24.8053978],[93.9463043,24.8051895]]}},{"type":"Feature","properties":{"kind":"path","osm":"way/665435638","highway":"residential","name":""},"geometry":{"type":"LineString","coordinates":[[93.9455253,24.8048348],[93.9454224,24.8048208],[93.9454027,24.8048114],[93.9453905,24.8047889],[93.9452515,24.8041878],[93.9452106,24.8041009],[93.9451581,24.8040255],[93.9451011,24.8039746],[93.9439462,24.8035084]]}},{"type":"Feature","properties":{"kind":"path","osm":"way/665435640","highway":"residential","name":""},"geometry":{"type":"LineString","coordinates":[[93.9457983,24.8036725],[93.9457387,24.8036876],[93.9457223,24.8036893],[93.9457035,24.8036881],[93.9448537,24.8036126]]}},{"type":"Feature","properties":{"kind":"path","osm":"way/665435642","highway":"residential","name":""},"geometry":{"type":"LineString","coordinates":[[93.9458942,24.8037151],[93.9458757,24.8040565],[93.945879,24.8040718],[93.9458921,24.804082]]}},{"type":"Feature","properties":{"kind":"path","osm":"way/665435644","highway":"residential","name":""},"geometry":{"type":"LineString","coordinates":[[93.9458325,24.8027797],[93.9458365,24.8026842]]}},{"type":"Feature","properties":{"kind":"path","osm":"way/665435645","highway":"residential","name":""},"geometry":{"type":"LineString","coordinates":[[93.9458178,24.8030584],[93.9458325,24.8027797]]}},{"type":"Feature","properties":{"kind":"path","osm":"way/665435647","highway":"residential","name":""},"geometry":{"type":"LineString","coordinates":[[93.9458921,24.804082],[93.9459109,24.8040846],[93.9464594,24.8040577],[93.9464702,24.8040555],[93.946478,24.8040493],[93.9464836,24.8040422],[93.9464919,24.8040157],[93.9464924,24.8040096],[93.9464886,24.8040037],[93.9464834,24.8039999],[93.9458942,24.8037151],[93.9457983,24.8036725],[93.945789,24.803656],[93.9457825,24.8036296],[93.9458178,24.8030584]]}},{"type":"Feature","properties":{"kind":"path","osm":"way/665435652","highway":"residential","name":""},"geometry":{"type":"LineString","coordinates":[[93.944061,24.7982789],[93.9441562,24.7987025],[93.9442581,24.7990361],[93.9443251,24.7991846],[93.9444646,24.7994525],[93.9445437,24.7995633],[93.9446081,24.7996424],[93.9446872,24.7997045],[93.9447717,24.7997483],[93.9448605,24.7997869],[93.9448978,24.7998031],[93.9449756,24.7998396],[93.9450493,24.799881],[93.9451097,24.799937],[93.9451607,24.7999918],[93.9452076,24.8000648],[93.9452291,24.800133],[93.9452679,24.8003631],[93.9452773,24.8005408],[93.9452693,24.8006894],[93.9452559,24.8008501],[93.9452049,24.8010047],[93.9451607,24.8011118],[93.9450601,24.8012177],[93.9443547,24.8016],[93.9442822,24.8016499],[93.944234,24.8017108],[93.9441897,24.8018021],[93.9440811,24.802087]]}},{"type":"Feature","properties":{"kind":"path","osm":"way/690053694","highway":"service","name":""},"geometry":{"type":"LineString","coordinates":[[93.9425702,24.8090224],[93.9428666,24.8089054],[93.9429091,24.8088828],[93.943061,24.8087482],[93.9430946,24.8087291],[93.9431292,24.8087124],[93.9437632,24.8084888],[93.943941,24.808445],[93.94414,24.8084163],[93.9444712,24.8084072],[93.9448708,24.8083969],[93.9448895,24.8083999],[93.9449081,24.8084058],[93.9449352,24.8084199],[93.9451856,24.808641]]}},{"type":"Feature","properties":{"kind":"path","osm":"way/690053699","highway":"service","name":""},"geometry":{"type":"LineString","coordinates":[[93.9402571,24.8042569],[93.9402375,24.8035771]]}},{"type":"Feature","properties":{"kind":"path","osm":"way/990872868","highway":"residential","name":""},"geometry":{"type":"LineString","coordinates":[[93.9448537,24.8036126],[93.9439462,24.8035084],[93.9436863,24.8034786],[93.9436599,24.8034695],[93.9436336,24.8034411],[93.943623,24.8033979],[93.9436898,24.8029349],[93.9458178,24.8030584],[93.9470743,24.8031065],[93.9473597,24.8031231]]}},{"type":"Feature","properties":{"kind":"path","osm":"way/990872869","highway":"residential","name":""},"geometry":{"type":"LineString","coordinates":[[93.9453095,24.8016998],[93.9449313,24.8017461],[93.9447691,24.8017668],[93.9447315,24.8017948],[93.9447114,24.8018264],[93.9447087,24.8018739],[93.9448052,24.8024832],[93.9448082,24.8025788]]}},{"type":"Feature","properties":{"kind":"path","osm":"way/990872870","highway":"residential","name":""},"geometry":{"type":"LineString","coordinates":[[93.9440811,24.802087],[93.9438685,24.8025907],[93.943809,24.802659]]}},{"type":"Feature","properties":{"kind":"path","osm":"way/990872871","highway":"residential","name":""},"geometry":{"type":"LineString","coordinates":[[93.9436898,24.8029349],[93.943809,24.802659]]}},{"type":"Feature","properties":{"kind":"path","osm":"way/990872877","highway":"residential","name":""},"geometry":{"type":"LineString","coordinates":[[93.9461359,24.8119492],[93.9448052,24.8119227]]}},{"type":"Feature","properties":{"kind":"path","osm":"way/990872878","highway":"residential","name":""},"geometry":{"type":"LineString","coordinates":[[93.9448899,24.8111944],[93.9461003,24.8110325]]}},{"type":"Feature","properties":{"kind":"path","osm":"way/990872879","highway":"residential","name":""},"geometry":{"type":"LineString","coordinates":[[93.9459148,24.8101374],[93.9459227,24.810601],[93.9459273,24.8106193],[93.9459387,24.81063],[93.94597,24.81064],[93.9465901,24.8106312]]}},{"type":"Feature","properties":{"kind":"path","osm":"way/990878066","highway":"residential","name":""},"geometry":{"type":"LineString","coordinates":[[93.9360772,24.8030093],[93.9360343,24.8027901],[93.936045,24.8025466],[93.9362274,24.8025222],[93.9363293,24.8024735],[93.9367853,24.8023761],[93.9372251,24.8023664],[93.9375148,24.8023956],[93.9378044,24.8024248],[93.9382896,24.8024929]]}},{"type":"Feature","properties":{"kind":"path","osm":"way/990879731","highway":"residential","name":""},"geometry":{"type":"LineString","coordinates":[[93.9380619,24.81275],[93.9379922,24.8122711]]}},{"type":"Feature","properties":{"kind":"path","osm":"way/1043418006","highway":"trunk","name":"Tiddim Road"},"geometry":{"type":"LineString","coordinates":[[93.9383719,24.8023879],[93.9378329,24.8018922],[93.9369625,24.8011471],[93.9360291,24.8003436],[93.935798,24.8001491],[93.9356237,24.800005],[93.9354913,24.7998956]]}},{"type":"Feature","properties":{"kind":"path","osm":"way/1043418010","highway":"trunk_link","name":""},"geometry":{"type":"LineString","coordinates":[[93.938431,24.8030572],[93.9384846,24.8029099],[93.9385289,24.8027894],[93.9385799,24.8027103],[93.9386536,24.8026457],[93.9387046,24.8026104],[93.938777,24.8025788],[93.9388776,24.8025428]]}},{"type":"Feature","properties":{"kind":"path","osm":"way/1043418011","highway":"trunk","name":""},"geometry":{"type":"LineString","coordinates":[[93.9441476,24.8147676],[93.944029,24.8147803],[93.9429331,24.8148861],[93.9415839,24.8150443],[93.9400685,24.8151977],[93.9395025,24.8152537],[93.9393443,24.8152586],[93.9392316,24.8152342],[93.9391592,24.8152001],[93.9391163,24.8151503],[93.9390895,24.8151003],[93.9390492,24.814813],[93.9389017,24.813121],[93.9388132,24.8119183],[93.9386684,24.8102944],[93.9385182,24.8083759],[93.9384696,24.807604]]}},{"type":"Feature","properties":{"kind":"path","osm":"way/1043418012","highway":"trunk","name":""},"geometry":{"type":"LineString","coordinates":[[93.9384502,24.8073976],[93.9384377,24.8034492],[93.938431,24.8030572],[93.9384337,24.8029404],[93.9384484,24.8027675],[93.9384712,24.8026321]]}},{"type":"Feature","properties":{"kind":"path","osm":"way/1043633837","highway":"trunk","name":""},"geometry":{"type":"LineString","coordinates":[[93.9411207,24.8024522],[93.9409738,24.8024504],[93.9395092,24.8024315],[93.9385439,24.8024235]]}},{"type":"Feature","properties":{"kind":"path","osm":"way/1043636676","highway":"trunk","name":""},"geometry":{"type":"LineString","coordinates":[[93.9338592,24.7519283],[93.9338765,24.7520986],[93.9338752,24.752123],[93.9341488,24.7535785],[93.9343438,24.7543771],[93.9344436,24.7547859],[93.9344556,24.7548384],[93.9344649,24.7548951],[93.9344822,24.755022],[93.9347202,24.7563528],[93.9347998,24.7567428],[93.9348591,24.7570336],[93.9349781,24.7576168],[93.9350865,24.7581478],[93.9352475,24.7589369],[93.9353961,24.7596654],[93.9355126,24.7602667],[93.9356941,24.7612033],[93.935793,24.7617137],[93.9360064,24.7627481],[93.936114,24.7632665],[93.9362392,24.763882],[93.9363575,24.7644494],[93.9364287,24.7648093],[93.9366004,24.7655741],[93.9366696,24.765903],[93.9367264,24.7661732],[93.9370912,24.7680126],[93.9374225,24.7696806],[93.9375579,24.7703647],[93.9377524,24.7713522],[93.9379147,24.7721766],[93.9380445,24.7727624],[93.9382392,24.7737426],[93.9384198,24.7746256],[93.938435,24.7746997],[93.9386281,24.7756787],[93.9389205,24.7770351],[93.9389738,24.7773091],[93.9391431,24.7781797],[93.9393389,24.7790832],[93.9395052,24.7799282],[93.9396129,24.7804702],[93.9397171,24.7809364],[93.9397359,24.781102],[93.9397252,24.7812043],[93.9396822,24.781292],[93.9396232,24.7813614],[93.9395387,24.7814101],[93.9394261,24.7814551],[93.9393188,24.7814831],[93.9392102,24.7814941],[93.9390331,24.7814989],[93.9385906,24.7815038],[93.9382553,24.7815136],[93.9382108,24.7815208],[93.9379844,24.7815574],[93.937743,24.7816378],[93.9375472,24.7817376],[93.9375033,24.7817727],[93.937389,24.7818642],[93.9373165,24.7819641],[93.9372897,24.7820822],[93.9373125,24.7821796],[93.9373487,24.7822806],[93.9374904,24.7825177],[93.9377752,24.7830063],[93.9384864,24.7844391],[93.938956,24.785368],[93.939225,24.7859518],[93.9396713,24.7868608],[93.939871,24.7872617],[93.9402998,24.7881227],[93.940435,24.7883787],[93.9407659,24.789026],[93.9409992,24.7894497],[93.9412138,24.7898271],[93.9414506,24.790315],[93.9416456,24.7907841],[93.9417583,24.7911031],[93.9418414,24.7913587],[93.941879,24.7915633],[93.9418864,24.7918024],[93.9418736,24.7920064],[93.9418468,24.7921111],[93.9417931,24.7922694],[93.9414844,24.7931485],[93.9409724,24.7945291],[93.9407122,24.7952036],[93.9405566,24.7955274],[93.9404735,24.7957222],[93.9403843,24.7959876],[93.9403743,24.7960948],[93.9403823,24.7962506],[93.9404064,24.7964089],[93.9404628,24.7965501],[93.940593,24.7967324],[93.9406773,24.7968179],[93.9407793,24.7969616],[93.9408343,24.7970626],[93.9408973,24.7972538],[93.9409228,24.7973828],[93.9409429,24.7975289],[93.940959,24.7976835],[93.9409779,24.7982968],[93.941004,24.8000158],[93.940995,24.8010175],[93.9409934,24.8016158],[93.9409885,24.8017449],[93.9409738,24.8024504],[93.9409737,24.8025253]]}},{"type":"Feature","properties":{"kind":"path","osm":"way/1043709948","highway":"primary","name":""},"geometry":{"type":"LineString","coordinates":[[93.9382605,24.807453],[93.9376491,24.8074674],[93.9371758,24.8074786],[93.9364812,24.8074909]]}},{"type":"Feature","properties":{"kind":"path","osm":"way/1043711618","highway":"tertiary","name":""},"geometry":{"type":"LineString","coordinates":[[93.9430457,24.8025374],[93.942501,24.8025257],[93.9411207,24.8024522]]}},{"type":"Feature","properties":{"kind":"path","osm":"way/1043711619","highway":"tertiary","name":"Sanjenthong"},"geometry":{"type":"LineString","coordinates":[[93.9437431,24.8025885],[93.9430457,24.8025374]]}},{"type":"Feature","properties":{"kind":"path","osm":"way/1043711620","highway":"tertiary","name":""},"geometry":{"type":"LineString","coordinates":[[93.9474908,24.8026738],[93.9473587,24.8026384],[93.9448082,24.8025788],[93.9438685,24.8025907],[93.9437431,24.8025885]]}},{"type":"Feature","properties":{"kind":"path","osm":"way/1054604471","highway":"residential","name":""},"geometry":{"type":"LineString","coordinates":[[93.9464834,24.8039999],[93.9466024,24.8039219],[93.9466132,24.8039157],[93.946621,24.8039126],[93.9467452,24.8038985],[93.9467639,24.8038941],[93.9467773,24.8038822],[93.9467828,24.8038657],[93.9468392,24.8035371]]}}],"source":{"name":"OpenStreetMap contributors","license":"ODbL 1.0","downloaded":"2026-09-22","url":"https://www.openstreetmap.org/copyright","heightNote":"Building elevations are illustrative; no measured heights in this dataset."}}
