{"type":"FeatureCollection","bbox":[93.9355,24.8008,93.9492,24.8148],"source":{"name":"OpenStreetMap contributors","license":"ODbL 1.0","url":"https://www.openstreetmap.org/copyright","query":"buildings within the Kangla map bounds, via Overpass","heights":"0 tagged in metres, 14 from building:levels x 3.2 m, 35 untagged and drawn at a flat 6.0 m"},"features":[{"type":"Feature","id":517997617,"properties":{"osm":"way/517997617","name":"","building":"yes","historic":"","height":6.0,"base":0,"heightSource":"assumed"},"geometry":{"type":"Polygon","coordinates":[[[93.9442138,24.8064674],[93.9443504,24.8064652],[93.9443457,24.8063073],[93.9442103,24.806301],[93.9442138,24.8064674]]]}},{"type":"Feature","id":517997619,"properties":{"osm":"way/517997619","name":"","building":"yes","historic":"","height":6.0,"base":0,"heightSource":"assumed"},"geometry":{"type":"Polygon","coordinates":[[[93.9451541,24.8085464],[93.9452512,24.8085443],[93.9452458,24.8083374],[93.9451487,24.8083395],[93.9451541,24.8085464]]]}},{"type":"Feature","id":665435610,"properties":{"osm":"way/665435610","name":"","building":"yes","historic":"","height":6.0,"base":0,"heightSource":"assumed"},"geometry":{"type":"Polygon","coordinates":[[[93.9465494,24.8009464],[93.9465575,24.8012325],[93.9471078,24.8012197],[93.9471068,24.8011848],[93.9471331,24.8011842],[93.947127,24.800967],[93.9471003,24.8009676],[93.9470993,24.8009336],[93.9465494,24.8009464]]]}},{"type":"Feature","id":665435611,"properties":{"osm":"way/665435611","name":"City Convention Centre","building":"yes","historic":"","height":6.0,"base":0,"heightSource":"assumed"},"geometry":{"type":"Polygon","coordinates":[[[93.947356,24.8021612],[93.9474298,24.8024096],[93.9475787,24.8023536],[93.9476685,24.802468],[93.947702,24.8024522],[93.9477852,24.8024059],[93.9478469,24.8023572],[93.9479113,24.8022781],[93.9479971,24.8021503],[93.948032,24.8020504],[93.9478911,24.8020176],[93.9478979,24.8018837],[93.9478576,24.8016633],[93.9478187,24.8016718],[93.9477906,24.8014977],[93.9475089,24.8015318],[93.9475223,24.801628],[93.9475425,24.8016243],[93.9476041,24.8019518],[93.94758,24.802031],[93.9475492,24.8020663],[93.9475183,24.802087],[93.9474687,24.8021186],[93.947356,24.8021612]]]}},{"type":"Feature","id":688223556,"properties":{"osm":"way/688223556","name":"","building":"yes","historic":"city_gate","height":6.0,"base":0,"heightSource":"assumed"},"geometry":{"type":"Polygon","coordinates":[[[93.9389657,24.8074204],[93.939103,24.8074213],[93.9391019,24.8075596],[93.9389662,24.8075587],[93.9389646,24.8075587],[93.9389652,24.8074891],[93.9389657,24.8074204]]]}},{"type":"Feature","id":688228261,"properties":{"osm":"way/688228261","name":"","building":"yes","historic":"","height":6.4,"base":0,"heightSource":"osm:levels"},"geometry":{"type":"Polygon","coordinates":[[[93.9373869,24.8059386],[93.9373869,24.8058688],[93.9376912,24.8058688],[93.9376912,24.8059386],[93.9376003,24.8059386],[93.9374334,24.8059386],[93.9373869,24.8059386]]]}},{"type":"Feature","id":688228263,"properties":{"osm":"way/688228263","name":"","building":"yes","historic":"","height":6.4,"base":0,"heightSource":"osm:levels"},"geometry":{"type":"Polygon","coordinates":[[[93.9374334,24.8060365],[93.9374334,24.8059386],[93.9376003,24.8059386],[93.9376003,24.8060365],[93.9374334,24.8060365]]]}},{"type":"Feature","id":688228264,"properties":{"osm":"way/688228264","name":"","building":"yes","historic":"","height":6.4,"base":0,"heightSource":"osm:levels"},"geometry":{"type":"Polygon","coordinates":[[[93.9375953,24.8064498],[93.9377663,24.806448],[93.9377674,24.8065345],[93.9375963,24.8065362],[93.9375953,24.8064498]]]}},{"type":"Feature","id":688228266,"properties":{"osm":"way/688228266","name":"","building":"yes","historic":"","height":6.4,"base":0,"heightSource":"osm:levels"},"geometry":{"type":"Polygon","coordinates":[[[93.9374626,24.8065341],[93.9374622,24.8064447],[93.937285,24.8064454],[93.9372854,24.8065349],[93.9374626,24.8065341]]]}},{"type":"Feature","id":688228267,"properties":{"osm":"way/688228267","name":"","building":"yes","historic":"","height":6.4,"base":0,"heightSource":"osm:levels"},"geometry":{"type":"Polygon","coordinates":[[[93.9375088,24.8068012],[93.9375092,24.8065938],[93.9376704,24.8065941],[93.93767,24.8068014],[93.9375088,24.8068012]]]}},{"type":"Feature","id":688229384,"properties":{"osm":"way/688229384","name":"","building":"yes","historic":"","height":6.4,"base":0,"heightSource":"osm:levels"},"geometry":{"type":"Polygon","coordinates":[[[93.9373367,24.807206],[93.9373401,24.8067472],[93.9373071,24.806747],[93.9373078,24.8066475],[93.9374572,24.8066484],[93.9374538,24.8071062],[93.9379664,24.8071094],[93.9379699,24.8066322],[93.9378576,24.8066315],[93.9378583,24.8065338],[93.9379759,24.8065345],[93.93798,24.8059751],[93.9377648,24.8059738],[93.9377655,24.8058792],[93.9380708,24.8058811],[93.9380652,24.8066364],[93.938061,24.8072104],[93.9379547,24.8072098],[93.9374527,24.8072067],[93.9373367,24.807206]]]}},{"type":"Feature","id":688231640,"properties":{"osm":"way/688231640","name":"","building":"yes","historic":"","height":6.4,"base":0,"heightSource":"osm:levels"},"geometry":{"type":"Polygon","coordinates":[[[93.9371699,24.8021758],[93.9372508,24.8021603],[93.9372892,24.8020985],[93.9372594,24.8020212],[93.9371699,24.8020018],[93.9370976,24.8020366],[93.9370933,24.8021178],[93.9371231,24.8021603],[93.9371699,24.8021758]]]}},{"type":"Feature","id":688234658,"properties":{"osm":"way/688234658","name":"","building":"yes","historic":"","height":6.0,"base":0,"heightSource":"assumed"},"geometry":{"type":"Polygon","coordinates":[[[93.9404386,24.8022588],[93.9404297,24.8020888],[93.9407329,24.8020685],[93.9407374,24.8022385],[93.9404386,24.8022588]]]}},{"type":"Feature","id":688234659,"properties":{"osm":"way/688234659","name":"","building":"yes","historic":"","height":6.0,"base":0,"heightSource":"assumed"},"geometry":{"type":"Polygon","coordinates":[[[93.940452,24.8020361],[93.9404341,24.8018418],[93.9407507,24.8018216],[93.9407507,24.8020199],[93.940452,24.8020361]]]}},{"type":"Feature","id":688234660,"properties":{"osm":"way/688234660","name":"","building":"yes","historic":"","height":6.4,"base":0,"heightSource":"osm:levels"},"geometry":{"type":"Polygon","coordinates":[[[93.9406259,24.8015747],[93.9406303,24.8014775],[93.9407953,24.8014613],[93.9407909,24.8015747],[93.9406259,24.8015747]]]}},{"type":"Feature","id":688234661,"properties":{"osm":"way/688234661","name":"","building":"yes","historic":"","height":6.4,"base":0,"heightSource":"osm:levels"},"geometry":{"type":"Polygon","coordinates":[[[93.9404966,24.8012832],[93.9404787,24.801093],[93.9408979,24.8010687],[93.9408979,24.801263],[93.9404966,24.8012832]]]}},{"type":"Feature","id":688234662,"properties":{"osm":"way/688234662","name":"","building":"yes","historic":"","height":6.0,"base":0,"heightSource":"assumed"},"geometry":{"type":"Polygon","coordinates":[[[93.9408934,24.8009958],[93.9408979,24.800838],[93.940617,24.8008582],[93.9406259,24.801012],[93.9408934,24.8009958]]]}},{"type":"Feature","id":688234668,"properties":{"osm":"way/688234668","name":"","building":"yes","historic":"","height":12.8,"base":0,"heightSource":"osm:levels"},"geometry":{"type":"Polygon","coordinates":[[[93.9402959,24.801008],[93.9402915,24.8008582],[93.9405679,24.800842],[93.9405635,24.8009918],[93.9402959,24.801008]]]}},{"type":"Feature","id":688234787,"properties":{"osm":"way/688234787","name":"","building":"yes","historic":"","height":12.8,"base":0,"heightSource":"osm:levels"},"geometry":{"type":"Polygon","coordinates":[[[93.9412892,24.800829],[93.9412848,24.800404],[93.9416772,24.800404],[93.9416727,24.8008209],[93.9412892,24.800829]]]}},{"type":"Feature","id":688234788,"properties":{"osm":"way/688234788","name":"","building":"yes","historic":"","height":9.6,"base":0,"heightSource":"osm:levels"},"geometry":{"type":"Polygon","coordinates":[[[93.9415222,24.8011092],[93.9415177,24.8009837],[93.9416782,24.8009756],[93.9416738,24.8011051],[93.9415222,24.8011092]]]}},{"type":"Feature","id":688234789,"properties":{"osm":"way/688234789","name":"","building":"yes","historic":"","height":9.6,"base":0,"heightSource":"osm:levels"},"geometry":{"type":"Polygon","coordinates":[[[93.9413527,24.801178],[93.9413393,24.8009513],[93.941433,24.8009432],[93.9414374,24.8011739],[93.9413527,24.801178]]]}},{"type":"Feature","id":690053679,"properties":{"osm":"way/690053679","name":"","building":"yes","historic":"","height":6.0,"base":0,"heightSource":"assumed"},"geometry":{"type":"Polygon","coordinates":[[[93.9477108,24.8012551],[93.9477187,24.8013225],[93.9478201,24.8013127],[93.9478121,24.8012453],[93.9479093,24.8012359],[93.9479073,24.8012183],[93.9479554,24.8012136],[93.9479455,24.8011289],[93.9478973,24.8011335],[93.9478953,24.8011159],[93.9477981,24.8011253],[93.9477907,24.8010624],[93.9476893,24.8010722],[93.9476967,24.8011352],[93.9476109,24.8011435],[93.9476249,24.8012634],[93.9477108,24.8012551]]]}},{"type":"Feature","id":690053688,"properties":{"osm":"way/690053688","name":"","building":"yes","historic":"","height":6.0,"base":0,"heightSource":"assumed"},"geometry":{"type":"Polygon","coordinates":[[[93.9453511,24.8086912],[93.9453527,24.808752],[93.9454667,24.8087496],[93.9454651,24.8086888],[93.9453511,24.8086912]]]}},{"type":"Feature","id":690053689,"properties":{"osm":"way/690053689","name":"","building":"yes","historic":"","height":6.0,"base":0,"heightSource":"assumed"},"geometry":{"type":"Polygon","coordinates":[[[93.9400738,24.8081665],[93.9400738,24.8083163],[93.9401691,24.8083163],[93.9401691,24.8081665],[93.9400738,24.8081665]]]}},{"type":"Feature","id":690053690,"properties":{"osm":"way/690053690","name":"","building":"yes","historic":"","height":6.0,"base":0,"heightSource":"assumed"},"geometry":{"type":"Polygon","coordinates":[[[93.9396313,24.8082883],[93.9397694,24.8082883],[93.9397694,24.8082286],[93.9396313,24.8082286],[93.9396313,24.8082883]]]}},{"type":"Feature","id":690053691,"properties":{"osm":"way/690053691","name":"","building":"yes","historic":"","height":6.0,"base":0,"heightSource":"assumed"},"geometry":{"type":"Polygon","coordinates":[[[93.9394703,24.8088568],[93.9394636,24.8084185],[93.9393439,24.80842],[93.9393506,24.8088583],[93.9394703,24.8088568]]]}},{"type":"Feature","id":690053692,"properties":{"osm":"way/690053692","name":"","building":"yes","historic":"","height":6.0,"base":0,"heightSource":"assumed"},"geometry":{"type":"Polygon","coordinates":[[[93.9400712,24.8084185],[93.939952,24.8084194],[93.939956,24.8088455],[93.9400752,24.8088446],[93.9400712,24.8084185]]]}},{"type":"Feature","id":690053693,"properties":{"osm":"way/690053693","name":"","building":"yes","historic":"","height":6.4,"base":0,"heightSource":"osm:levels"},"geometry":{"type":"Polygon","coordinates":[[[93.9375887,24.8064265],[93.9375888,24.8061107],[93.9377125,24.8061107],[93.9377125,24.8064265],[93.9375887,24.8064265]]]}},{"type":"Feature","id":690053695,"properties":{"osm":"way/690053695","name":"","building":"yes","historic":"","height":6.0,"base":0,"heightSource":"assumed"},"geometry":{"type":"Polygon","coordinates":[[[93.9429498,24.8090667],[93.942968,24.8091173],[93.9430222,24.8091013],[93.9430041,24.8090507],[93.9429498,24.8090667]]]}},{"type":"Feature","id":690053696,"properties":{"osm":"way/690053696","name":"","building":"yes","historic":"","height":6.0,"base":0,"heightSource":"assumed"},"geometry":{"type":"Polygon","coordinates":[[[93.9429143,24.808987],[93.9429398,24.8090369],[93.9429907,24.8090155],[93.9429653,24.8089656],[93.9429143,24.808987]]]}},{"type":"Feature","id":690053697,"properties":{"osm":"way/690053697","name":"","building":"yes","historic":"","height":6.0,"base":0,"heightSource":"assumed"},"geometry":{"type":"Polygon","coordinates":[[[93.9428124,24.8091562],[93.9429036,24.8091136],[93.9428667,24.8090487],[93.9427755,24.8090913],[93.9428124,24.8091562]]]}},{"type":"Feature","id":690053698,"properties":{"osm":"way/690053698","name":"","building":"yes","historic":"","height":6.0,"base":0,"heightSource":"assumed"},"geometry":{"type":"Polygon","coordinates":[[[93.9429036,24.8074321],[93.9429027,24.8073802],[93.9428238,24.8073813],[93.9428247,24.8074332],[93.9427729,24.807434],[93.9427742,24.8075092],[93.9428259,24.8075084],[93.9428267,24.8075522],[93.9429056,24.8075512],[93.9429049,24.8075073],[93.9429498,24.8075067],[93.9429486,24.8074315],[93.9429036,24.8074321]]]}},{"type":"Feature","id":690053701,"properties":{"osm":"way/690053701","name":"","building":"yes","historic":"","height":6.0,"base":0,"heightSource":"assumed"},"geometry":{"type":"Polygon","coordinates":[[[93.9415303,24.8039764],[93.941519,24.8038888],[93.9413714,24.8039045],[93.9413826,24.803992],[93.9415303,24.8039764]]]}},{"type":"Feature","id":690053702,"properties":{"osm":"way/690053702","name":"","building":"yes","historic":"","height":6.0,"base":0,"heightSource":"assumed"},"geometry":{"type":"Polygon","coordinates":[[[93.9409845,24.8034017],[93.9410056,24.8035658],[93.9410998,24.8035557],[93.9410786,24.8033917],[93.9409845,24.8034017]]]}},{"type":"Feature","id":690053703,"properties":{"osm":"way/690053703","name":"","building":"yes","historic":"","height":6.0,"base":0,"heightSource":"assumed"},"geometry":{"type":"Polygon","coordinates":[[[93.9415759,24.8032082],[93.9414495,24.8032216],[93.9414743,24.8034138],[93.9414445,24.803417],[93.9414583,24.8035244],[93.9414881,24.8035212],[93.9415218,24.8037824],[93.9416382,24.80377],[93.9416046,24.8035088],[93.9415659,24.8035129],[93.9415568,24.8034422],[93.9416054,24.8034371],[93.9415759,24.8032082]]]}},{"type":"Feature","id":690053705,"properties":{"osm":"way/690053705","name":"","building":"yes","historic":"","height":6.0,"base":0,"heightSource":"assumed"},"geometry":{"type":"Polygon","coordinates":[[[93.939465,24.8078098],[93.9393711,24.8078098],[93.9393711,24.8080192],[93.939465,24.8080192],[93.939465,24.8078098]]]}},{"type":"Feature","id":690053706,"properties":{"osm":"way/690053706","name":"","building":"yes","historic":"","height":6.0,"base":0,"heightSource":"assumed"},"geometry":{"type":"Polygon","coordinates":[[[93.939524,24.8077636],[93.9397748,24.8077636],[93.9397748,24.8076966],[93.939524,24.8076966],[93.939524,24.8077636]]]}},{"type":"Feature","id":690053707,"properties":{"osm":"way/690053707","name":"","building":"yes","historic":"","height":6.0,"base":0,"heightSource":"assumed"},"geometry":{"type":"Polygon","coordinates":[[[93.9408959,24.8069394],[93.9407932,24.8069432],[93.9408146,24.8074241],[93.9409174,24.8074203],[93.9408959,24.8069394]]]}},{"type":"Feature","id":690053708,"properties":{"osm":"way/690053708","name":"","building":"yes","historic":"","height":6.0,"base":0,"heightSource":"assumed"},"geometry":{"type":"Polygon","coordinates":[[[93.9412654,24.8078086],[93.9412493,24.8076345],[93.9411247,24.807644],[93.9411408,24.8078181],[93.9412654,24.8078086]]]}},{"type":"Feature","id":690053710,"properties":{"osm":"way/690053710","name":"","building":"yes","historic":"","height":6.0,"base":0,"heightSource":"assumed"},"geometry":{"type":"Polygon","coordinates":[[[93.9448401,24.8071001],[93.9445592,24.8071231],[93.9445676,24.8072074],[93.9447417,24.8071931],[93.9447529,24.8073061],[93.9445788,24.8073203],[93.944586,24.8073934],[93.944867,24.8073704],[93.9448401,24.8071001]]]}},{"type":"Feature","id":690053711,"properties":{"osm":"way/690053711","name":"","building":"yes","historic":"","height":6.0,"base":0,"heightSource":"assumed"},"geometry":{"type":"Polygon","coordinates":[[[93.9451177,24.8074836],[93.9449964,24.8074851],[93.9449986,24.8076336],[93.94512,24.8076321],[93.9451177,24.8074836]]]}},{"type":"Feature","id":810730145,"properties":{"osm":"way/810730145","name":"","building":"yes","historic":"","height":6.0,"base":0,"heightSource":"assumed"},"geometry":{"type":"Polygon","coordinates":[[[93.9488066,24.8076014],[93.948985,24.8076014],[93.948985,24.8074919],[93.9488066,24.8074919],[93.9488066,24.8076014]]]}},{"type":"Feature","id":810730157,"properties":{"osm":"way/810730157","name":"","building":"yes","historic":"","height":6.0,"base":0,"heightSource":"assumed"},"geometry":{"type":"Polygon","coordinates":[[[93.9479381,24.8076065],[93.9480478,24.8076025],[93.9480424,24.807482],[93.9479327,24.807486],[93.9479381,24.8076065]]]}},{"type":"Feature","id":810730167,"properties":{"osm":"way/810730167","name":"","building":"yes","historic":"","height":6.0,"base":0,"heightSource":"assumed"},"geometry":{"type":"Polygon","coordinates":[[[93.9364354,24.8096103],[93.9365305,24.809822],[93.9366687,24.8097709],[93.9365736,24.8095592],[93.9364354,24.8096103]]]}},{"type":"Feature","id":810730185,"properties":{"osm":"way/810730185","name":"","building":"yes","historic":"","height":6.0,"base":0,"heightSource":"assumed"},"geometry":{"type":"Polygon","coordinates":[[[93.9474942,24.8028442],[93.9474912,24.8030347],[93.9477742,24.8030384],[93.9477758,24.8029353],[93.9476337,24.8029335],[93.947635,24.802846],[93.9474942,24.8028442]]]}},{"type":"Feature","id":810730191,"properties":{"osm":"way/810730191","name":"","building":"yes","historic":"","height":6.0,"base":0,"heightSource":"assumed"},"geometry":{"type":"Polygon","coordinates":[[[93.9482278,24.8146597],[93.948338,24.8148764],[93.9484252,24.8148399],[93.9483149,24.8146231],[93.9482278,24.8146597]]]}},{"type":"Feature","id":810730193,"properties":{"osm":"way/810730193","name":"","building":"yes","historic":"","height":6.0,"base":0,"heightSource":"assumed"},"geometry":{"type":"Polygon","coordinates":[[[93.9473091,24.804949],[93.9473192,24.8050247],[93.9474077,24.805015],[93.9473976,24.8049393],[93.9473091,24.804949]]]}},{"type":"Feature","id":1057560316,"properties":{"osm":"way/1057560316","name":"The Manipur Public Library","building":"yes","historic":"","height":6.0,"base":0,"heightSource":"assumed"},"geometry":{"type":"Polygon","coordinates":[[[93.9378863,24.8078244],[93.9379811,24.8078267],[93.9379666,24.8078477],[93.938071,24.8078468],[93.9380594,24.8078251],[93.9381152,24.8078264],[93.9381176,24.8077436],[93.9379066,24.8077385],[93.9379061,24.8077575],[93.9378882,24.807757],[93.9378863,24.8078244]]]}},{"type":"Feature","id":1057828518,"properties":{"osm":"way/1057828518","name":"","building":"yes","historic":"","height":6.0,"base":0,"heightSource":"assumed"},"geometry":{"type":"Polygon","coordinates":[[[93.937358,24.8083703],[93.9374547,24.8083665],[93.9374555,24.8083826],[93.9375086,24.8083806],[93.9375076,24.8083599],[93.9376518,24.8083542],[93.9376454,24.808219],[93.9374711,24.8082258],[93.9374532,24.80785],[93.9373336,24.8078547],[93.937358,24.8083703]]]}}]}
